start=new Date('2023-07-01T00:00:00.000Z').valueOf();
sats=[{"RA_OF_ASC_NODE":"185.1728","CLASSIFICATION_TYPE":"U","REV_AT_EPOCH":"17641","RCS_SIZE":"LARGE","COUNTRY_CODE":"US","OBJECT_ID":"2020-025AJ","BSTAR":"0.00005415700000","OBJECT_NAME":"STARLINK-1355","LAUNCH_DATE":"2020-04-22","GP_ID":"234620956","DECAY_DATE":null,"SEMIMAJOR_AXIS":"6925.348","APOAPSIS":"548.027","REF_FRAME":"TEME","ELEMENT_SET_NO":"999","MEAN_ELEMENT_THEORY":"SGP4","MEAN_ANOMALY":"275.8372","PERIAPSIS":"546.398","FILE":"3945593","SITE":"AFETR","NORAD_CAT_ID":"45563","MEAN_MOTION_DOT":"0.00000525","TLE_LINE2":"2 45563  53.0537 185.1728 0001176  84.2751 275.8372 15.06400345176413","EPOCH":"2023-06-29T10:06:08.932608","TLE_LINE1":"1 45563U 20025AJ  23180.42093672  .00000525  00000-0  54157-4 0  9997","ARG_OF_PERICENTER":"84.2751","EPHEMERIS_TYPE":"0","ECCENTRICITY":"0.00011760","TIME_SYSTEM":"UTC","CENTER_NAME":"EARTH","PERIOD":"95.592","OBJECT_TYPE":"PAYLOAD","MEAN_MOTION_DDOT":"0.0000000000000","INCLINATION":"53.0537","MEAN_MOTION":"15.06400345"},{"CLASSIFICATION_TYPE":"U","RA_OF_ASC_NODE":"185.7825","COUNTRY_CODE":"US","OBJECT_ID":"2020-025AK","BSTAR":"0.00001728800000","REV_AT_EPOCH":"17639","RCS_SIZE":"LARGE","GP_ID":"234623225","DECAY_DATE":null,"SEMIMAJOR_AXIS":"6925.357","OBJECT_NAME":"STARLINK-1356","LAUNCH_DATE":"2020-04-22","MEAN_ELEMENT_THEORY":"SGP4","APOAPSIS":"548.019","REF_FRAME":"TEME","ELEMENT_SET_NO":"999","FILE":"3945675","SITE":"AFETR","MEAN_ANOMALY":"275.1372","PERIAPSIS":"546.426","TLE_LINE1":"1 45564U 20025AK  23180.28456599 -.00000024  00000-0  17288-4 0  9992","ARG_OF_PERICENTER":"84.9748","EPHEMERIS_TYPE":"0","ECCENTRICITY":"0.00011500","TIME_SYSTEM":"UTC","CENTER_NAME":"EARTH","NORAD_CAT_ID":"45564","MEAN_MOTION_DOT":"-0.00000024","TLE_LINE2":"2 45564  53.0537 185.7825 0001150  84.9748 275.1372 15.06397153176395","EPOCH":"2023-06-29T06:49:46.501536","OBJECT_TYPE":"PAYLOAD","MEAN_MOTION_DDOT":"0.0000000000000","MEAN_MOTION":"15.06397153","INCLINATION":"53.0537","PERIOD":"95.592"},{"MEAN_ELEMENT_THEORY":"SGP4","ELEMENT_SET_NO":"999","APOAPSIS":"548.029","REF_FRAME":"TEME","DECAY_DATE":null,"GP_ID":"234620949","SEMIMAJOR_AXIS":"6925.344","LAUNCH_DATE":"2020-04-22","OBJECT_NAME":"STARLINK-1357","OBJECT_ID":"2020-025AL","BSTAR":"0.00006805100000","COUNTRY_CODE":"US","RCS_SIZE":"LARGE","REV_AT_EPOCH":"17642","CLASSIFICATION_TYPE":"U","RA_OF_ASC_NODE":"185.2170","MEAN_MOTION_DDOT":"0.0000000000000","MEAN_MOTION":"15.06401336","INCLINATION":"53.0537","OBJECT_TYPE":"PAYLOAD","PERIOD":"95.592","EPHEMERIS_TYPE":"0","ECCENTRICITY":"0.00011830","TIME_SYSTEM":"UTC","CENTER_NAME":"EARTH","TLE_LINE1":"1 45565U 20025AL  23180.40988174  .00000732  00000-0  68051-4 0  9995","ARG_OF_PERICENTER":"90.2562","TLE_LINE2":"2 45565  53.0537 185.2170 0001183  90.2562 269.8563 15.06401336176429","EPOCH":"2023-06-29T09:50:13.782336","NORAD_CAT_ID":"45565","MEAN_MOTION_DOT":"0.00000732","SITE":"AFETR","FILE":"3945593","MEAN_ANOMALY":"269.8563","PERIAPSIS":"546.390"},{"OBJECT_ID":"2020-025AM","BSTAR":"0.00001409000000","COUNTRY_CODE":"US","REV_AT_EPOCH":"17634","RCS_SIZE":"LARGE","CLASSIFICATION_TYPE":"U","RA_OF_ASC_NODE":"187.2408","MEAN_ELEMENT_THEORY":"SGP4","ELEMENT_SET_NO":"999","APOAPSIS":"547.907","REF_FRAME":"TEME","SEMIMAJOR_AXIS":"6925.356","GP_ID":"234616658","DECAY_DATE":null,"LAUNCH_DATE":"2020-04-22","OBJECT_NAME":"STARLINK-1358","ECCENTRICITY":"0.00009900","EPHEMERIS_TYPE":"0","TIME_SYSTEM":"UTC","CENTER_NAME":"EARTH","TLE_LINE1":"1 45566U 20025AM  23179.96020291 -.00000071  00000-0  14090-4 0  9993","ARG_OF_PERICENTER":"86.7527","TLE_LINE2":"2 45566  53.0533 187.2408 0000990  86.7527 273.3576 15.06397530176343","EPOCH":"2023-06-28T23:02:41.531424","NORAD_CAT_ID":"45566","MEAN_MOTION_DOT":"-0.00000071","SITE":"AFETR","FILE":"3945413","MEAN_ANOMALY":"273.3576","PERIAPSIS":"546.536","MEAN_MOTION_DDOT":"0.0000000000000","INCLINATION":"53.0533","MEAN_MOTION":"15.06397530","OBJECT_TYPE":"PAYLOAD","PERIOD":"95.592"},{"TLE_LINE1":"1 45567U 20025AN  23180.43568015 -.00000912  00000-0 -42350-4 0  9994","ARG_OF_PERICENTER":"93.1271","ECCENTRICITY":"0.00011490","EPHEMERIS_TYPE":"0","CENTER_NAME":"EARTH","TIME_SYSTEM":"UTC","NORAD_CAT_ID":"45567","MEAN_MOTION_DOT":"-0.00000912","TLE_LINE2":"2 45567  53.0531 185.1061 0001149  93.1271 266.9849 15.06395886176410","EPOCH":"2023-06-29T10:27:22.764960","FILE":"3945623","SITE":"AFETR","MEAN_ANOMALY":"266.9849","PERIAPSIS":"546.430","OBJECT_TYPE":"PAYLOAD","MEAN_MOTION_DDOT":"0.0000000000000","INCLINATION":"53.0531","MEAN_MOTION":"15.06395886","PERIOD":"95.592","COUNTRY_CODE":"US","OBJECT_ID":"2020-025AN","BSTAR":"-0.00004235000000","REV_AT_EPOCH":"17641","RCS_SIZE":"LARGE","CLASSIFICATION_TYPE":"U","RA_OF_ASC_NODE":"185.1061","MEAN_ELEMENT_THEORY":"SGP4","APOAPSIS":"548.022","REF_FRAME":"TEME","ELEMENT_SET_NO":"999","SEMIMAJOR_AXIS":"6925.361","GP_ID":"234621464","DECAY_DATE":null,"OBJECT_NAME":"STARLINK-1361","LAUNCH_DATE":"2020-04-22"},{"EPOCH":"2023-06-29T04:26:30.135264","TLE_LINE2":"2 45568  53.0536 186.4718 0001140  89.4164 270.6956 15.06399859176379","MEAN_MOTION_DOT":"0.00000698","NORAD_CAT_ID":"45568","TIME_SYSTEM":"UTC","CENTER_NAME":"EARTH","ECCENTRICITY":"0.00011400","EPHEMERIS_TYPE":"0","ARG_OF_PERICENTER":"89.4164","TLE_LINE1":"1 45568U 20025AP  23180.18507101  .00000698  00000-0  65736-4 0  9998","PERIAPSIS":"546.425","MEAN_ANOMALY":"270.6956","SITE":"AFETR","FILE":"3945293","PERIOD":"95.592","MEAN_MOTION":"15.06399859","INCLINATION":"53.0536","MEAN_MOTION_DDOT":"0.0000000000000","OBJECT_TYPE":"PAYLOAD","RCS_SIZE":"LARGE","REV_AT_EPOCH":"17637","BSTAR":"0.00006573600000","OBJECT_ID":"2020-025AP","COUNTRY_CODE":"US","RA_OF_ASC_NODE":"186.4718","CLASSIFICATION_TYPE":"U","ELEMENT_SET_NO":"999","REF_FRAME":"TEME","APOAPSIS":"548.003","MEAN_ELEMENT_THEORY":"SGP4","LAUNCH_DATE":"2020-04-22","OBJECT_NAME":"STARLINK-1363","GP_ID":"234613953","DECAY_DATE":null,"SEMIMAJOR_AXIS":"6925.349"},{"RA_OF_ASC_NODE":"186.2794","CLASSIFICATION_TYPE":"U","RCS_SIZE":"LARGE","REV_AT_EPOCH":"17637","BSTAR":"0.00009867600000","OBJECT_ID":"2020-025AQ","COUNTRY_CODE":"US","LAUNCH_DATE":"2020-04-22","OBJECT_NAME":"STARLINK-1366","SEMIMAJOR_AXIS":"6925.339","GP_ID":"234616679","DECAY_DATE":null,"ELEMENT_SET_NO":"999","REF_FRAME":"TEME","APOAPSIS":"547.946","MEAN_ELEMENT_THEORY":"SGP4","PERIAPSIS":"546.461","MEAN_ANOMALY":"276.2370","SITE":"AFETR","FILE":"3945414","EPOCH":"2023-06-29T04:10:32.054304","TLE_LINE2":"2 45569  53.0528 186.2794 0001072  83.8741 276.2370 15.06403166176375","MEAN_MOTION_DOT":"0.00001189","NORAD_CAT_ID":"45569","CENTER_NAME":"EARTH","TIME_SYSTEM":"UTC","EPHEMERIS_TYPE":"0","ECCENTRICITY":"0.00010720","ARG_OF_PERICENTER":"83.8741","TLE_LINE1":"1 45569U 20025AQ  23180.17398211  .00001189  00000-0  98676-4 0  9993","PERIOD":"95.592","MEAN_MOTION":"15.06403166","INCLINATION":"53.0528","MEAN_MOTION_DDOT":"0.0000000000000","OBJECT_TYPE":"PAYLOAD"},{"MEAN_MOTION_DDOT":"0.0000000000000","INCLINATION":"53.0532","MEAN_MOTION":"15.06399856","OBJECT_TYPE":"PAYLOAD","PERIOD":"95.592","EPHEMERIS_TYPE":"0","ECCENTRICITY":"0.00010210","CENTER_NAME":"EARTH","TIME_SYSTEM":"UTC","TLE_LINE1":"1 45570U 20025AR  23180.16661486  .00000583  00000-0  58038-4 0  9996","ARG_OF_PERICENTER":"90.8541","TLE_LINE2":"2 45570  53.0532 186.3134 0001021  90.8541 269.2565 15.06399856176380","EPOCH":"2023-06-29T03:59:55.523904","NORAD_CAT_ID":"45570","MEAN_MOTION_DOT":"0.00000583","SITE":"AFETR","FILE":"3945413","MEAN_ANOMALY":"269.2565","PERIAPSIS":"546.507","MEAN_ELEMENT_THEORY":"SGP4","ELEMENT_SET_NO":"999","APOAPSIS":"547.921","REF_FRAME":"TEME","SEMIMAJOR_AXIS":"6925.349","GP_ID":"234617094","DECAY_DATE":null,"LAUNCH_DATE":"2020-04-22","OBJECT_NAME":"STARLINK-1376","OBJECT_ID":"2020-025AR","BSTAR":"0.00005803800000","COUNTRY_CODE":"US","RCS_SIZE":"LARGE","REV_AT_EPOCH":"17638","CLASSIFICATION_TYPE":"U","RA_OF_ASC_NODE":"186.3134"},{"PERIOD":"95.592","INCLINATION":"53.0532","MEAN_MOTION":"15.06401442","MEAN_MOTION_DDOT":"0.0000000000000","OBJECT_TYPE":"PAYLOAD","EPOCH":"2023-06-29T09:09:05.505408","TLE_LINE2":"2 45571  53.0532 175.3509 0001152  89.6991 270.4130 15.06401442176551","MEAN_MOTION_DOT":"0.00000047","NORAD_CAT_ID":"45571","CENTER_NAME":"EARTH","TIME_SYSTEM":"UTC","ECCENTRICITY":"0.00011520","EPHEMERIS_TYPE":"0","ARG_OF_PERICENTER":"89.6991","TLE_LINE1":"1 45571U 20025AS  23180.38131372  .00000047  00000-0  22041-4 0  9997","PERIAPSIS":"546.411","MEAN_ANOMALY":"270.4130","SITE":"AFETR","FILE":"3945585","ELEMENT_SET_NO":"999","REF_FRAME":"TEME","APOAPSIS":"548.007","MEAN_ELEMENT_THEORY":"SGP4","LAUNCH_DATE":"2020-04-22","OBJECT_NAME":"STARLINK-1261","GP_ID":"234620858","DECAY_DATE":null,"SEMIMAJOR_AXIS":"6925.344","REV_AT_EPOCH":"17655","RCS_SIZE":"LARGE","BSTAR":"0.00002204100000","OBJECT_ID":"2020-025AS","COUNTRY_CODE":"US","RA_OF_ASC_NODE":"175.3509","CLASSIFICATION_TYPE":"U"},{"MEAN_MOTION_DOT":"0.00004590","NORAD_CAT_ID":"45572","EPOCH":"2023-06-30T16:06:10.035072","TLE_LINE2":"2 45572  53.0522 168.5535 0003717  29.8725 330.2477 15.09643185176750","ARG_OF_PERICENTER":"29.8725","TLE_LINE1":"1 45572U 20025AT  23181.67094948  .00004590  00000-0  29978-3 0  9990","CENTER_NAME":"EARTH","TIME_SYSTEM":"UTC","ECCENTRICITY":"0.00037170","EPHEMERIS_TYPE":"0","PERIAPSIS":"534.721","MEAN_ANOMALY":"330.2477","FILE":"3946067","SITE":"AFETR","PERIOD":"95.387","OBJECT_TYPE":"PAYLOAD","MEAN_MOTION":"15.09643185","INCLINATION":"53.0522","MEAN_MOTION_DDOT":"0.0000000000000","RCS_SIZE":"LARGE","REV_AT_EPOCH":"17675","COUNTRY_CODE":"US","BSTAR":"0.00029978000000","OBJECT_ID":"2020-025AT","RA_OF_ASC_NODE":"168.5535","CLASSIFICATION_TYPE":"U","REF_FRAME":"TEME","APOAPSIS":"539.862","ELEMENT_SET_NO":"999","MEAN_ELEMENT_THEORY":"SGP4","OBJECT_NAME":"STARLINK-1320","LAUNCH_DATE":"2020-04-22","SEMIMAJOR_AXIS":"6915.426","GP_ID":"234632965","DECAY_DATE":null}];
